2022-170E               
1 54745U 22170E   22347.96853071 -.00000281  00000+0  00000+0 0  9994
2 54745   6.0528 219.0137 7282997 178.1132  82.6839  2.27460541    05
